{"type": "FeatureCollection", "features": [ {"type": "Feature", "properties": {"norad_id": 30663, "name": "FENGYUN 1C DEB", "group": "fengyun-1c-debris", "lat": -52.5238734685883, "lon": -79.72360230704551, "alt_km": 1669.0905613638142, "timestamp": "2025-12-17T10:52:54.631317+00:00", "meta": {"OBJECT_NAME": "FENGYUN 1C DEB", "OBJECT_ID": "1999-025APV", "EPOCH": "2025-12-16T11:35:22.487424", "MEAN_MOTION": 13.23151066, "ECCENTRICITY": 0.06483912, "INCLINATION": 99.3034, "RA_OF_ASC_NODE": 267.0592, "ARG_OF_PERICENTER": 127.4775, "MEAN_ANOMALY": 238.7141, "EPHEMERIS_TYPE": 0, "CLASSIFICATION_TYPE": "U", "NORAD_CAT_ID": 30663, "ELEMENT_SET_NO": 999, "REV_AT_EPOCH": 89097, "BSTAR": 0.0016107062, "MEAN_MOTION_DOT": 2.072e-05, "MEAN_MOTION_DDOT": 0}, "tle": {"line1": "1 30663U 99025APV 25350.48289916  .00002072  00000+0  16107-2 0  9992", "line2": "2 30663  99.3034 267.0592 0648391 127.4775 238.7141 13.23151066890970"}}, "geometry": {"type": "Point", "coordinates": [-79.72360230704551, -52.5238734685883]}}, {"type": "Feature", "properties": {"norad_id": 30665, "name": "FENGYUN 1C DEB", "group": "fengyun-1c-debris", "lat": -43.48106769769439, "lon": 134.33218678371938, "alt_km": 817.6594340785286, "timestamp": "2025-12-17T10:52:54.631327+00:00", "meta": {"OBJECT_NAME": "FENGYUN 1C DEB", "OBJECT_ID": "1999-025APX", "EPOCH": "2025-12-15T10:48:46.345824", "MEAN_MOTION": 14.12357718, "ECCENTRICITY": 0.00676611, "INCLINATION": 99.2086, "RA_OF_ASC_NODE": 321.1247, "ARG_OF_PERICENTER": 194.7885, "MEAN_ANOMALY": 290.8628, "EPHEMERIS_TYPE": 0, "CLASSIFICATION_TYPE": "U", "NORAD_CAT_ID": 30665, "ELEMENT_SET_NO": 999, "REV_AT_EPOCH": 96008, "BSTAR": 0.0013602574, "MEAN_MOTION_DOT": 2.515e-05, "MEAN_MOTION_DDOT": 0}, "tle": {"line1": "1 30665U 99025APX 25349.45053641  .00002515  00000+0  13603-2 0  9993", "line2": "2 30665  99.2086 321.1247 0067661 194.7885 290.8628 14.12357718960081"}}, "geometry": {"type": "Point", "coordinates": [134.33218678371938, -43.48106769769439]}}, {"type": "Feature", "properties": {"norad_id": 30666, "name": "FENGYUN 1C DEB", "group": "fengyun-1c-debris", "lat": -47.84877599831045, "lon": 145.04315697630244, "alt_km": 897.2080987726295, "timestamp": "2025-12-17T10:52:54.631337+00:00", "meta": {"OBJECT_NAME": "FENGYUN 1C DEB", "OBJECT_ID": "1999-025APY", "EPOCH": "2025-12-16T22:04:33.567744", "MEAN_MOTION": 14.02558307, "ECCENTRICITY": 0.00613055, "INCLINATION": 98.822, "RA_OF_ASC_NODE": 334.4052, "ARG_OF_PERICENTER": 132.5908, "MEAN_ANOMALY": 282.5875, "EPHEMERIS_TYPE": 0, "CLASSIFICATION_TYPE": "U", "NORAD_CAT_ID": 30666, "ELEMENT_SET_NO": 999, "REV_AT_EPOCH": 96169, "BSTAR": 0.00022709979, "MEAN_MOTION_DOT": 3.13e-06, "MEAN_MOTION_DDOT": 0}, "tle": {"line1": "1 30666U 99025APY 25350.91983296  .00000313  00000+0  22710-3 0  9999", "line2": "2 30666  98.8220 334.4052 0061305 132.5908 282.5875 14.02558307961699"}}, "geometry": {"type": "Point", "coordinates": [145.04315697630244, -47.84877599831045]}}, {"type": "Feature", "properties": {"norad_id": 30668, "name": "FENGYUN 1C DEB", "group": "fengyun-1c-debris", "lat": -43.30187972229615, "lon": 73.31290205920442, "alt_km": 850.820074250244, "timestamp": "2025-12-17T10:52:54.631347+00:00", "meta": {"OBJECT_NAME": "FENGYUN 1C DEB", "OBJECT_ID": "1999-025AQA", "EPOCH": "2025-12-14T03:28:11.183232", "MEAN_MOTION": 14.1234121, "ECCENTRICITY": 0.00790226, "INCLINATION": 99.1297, "RA_OF_ASC_NODE": 61.2268, "ARG_OF_PERICENTER": 242.0168, "MEAN_ANOMALY": 178.7632, "EPHEMERIS_TYPE": 0, "CLASSIFICATION_TYPE": "U", "NORAD_CAT_ID": 30668, "ELEMENT_SET_NO": 999, "REV_AT_EPOCH": 96075, "BSTAR": 0.0022060072, "MEAN_MOTION_DOT": 4.14e-05, "MEAN_MOTION_DDOT": 0}, "tle": {"line1": "1 30668U 99025AQA 25348.14457388  .00004140  00000+0  22060-2 0  9990", "line2": "2 30668  99.1297  61.2268 0079022 242.0168 178.7632 14.12341210960750"}}, "geometry": {"type": "Point", "coordinates": [73.31290205920442, -43.30187972229615]}}, {"type": "Feature", "properties": {"norad_id": 30669, "name": "FENGYUN 1C DEB", "group": "fengyun-1c-debris", "lat": -28.783502173833728, "lon": 103.09296891696327, "alt_km": 829.848218085941, "timestamp": "2025-12-17T10:52:54.631357+00:00", "meta": {"OBJECT_NAME": "FENGYUN 1C DEB", "OBJECT_ID": "1999-025AQB", "EPOCH": "2025-12-15T18:39:40.226688", "MEAN_MOTION": 14.02736421, "ECCENTRICITY": 0.01178858, "INCLINATION": 98.6336, "RA_OF_ASC_NODE": 286.2916, "ARG_OF_PERICENTER": 167.9872, "MEAN_ANOMALY": 221.9257, "EPHEMERIS_TYPE": 0, "CLASSIFICATION_TYPE": "U", "NORAD_CAT_ID": 30669, "ELEMENT_SET_NO": 999, "REV_AT_EPOCH": 95496, "BSTAR": 0.0010301136, "MEAN_MOTION_DOT": 1.652e-05, "MEAN_MOTION_DDOT": 0}, "tle": {"line1": "1 30669U 99025AQB 25349.77754892  .00001652  00000+0  10301-2 0  9991", "line2": "2 30669  98.6336 286.2916 0117885 167.9872 221.9257 14.02736421954966"}}, "geometry": {"type": "Point", "coordinates": [103.09296891696327, -28.783502173833728]}}, {"type": "Feature", "properties": {"norad_id": 30670, "name": "FENGYUN 1C DEB", "group": "fengyun-1c-debris", "lat": -6.984644060628646, "lon": 36.85278231095854, "alt_km": 830.3289583198157, "timestamp": "2025-12-17T10:52:54.631367+00:00", "meta": {"OBJECT_NAME": "FENGYUN 1C DEB", "OBJECT_ID": "1999-025AQC", "EPOCH": "2025-12-16T16:50:03.595200", "MEAN_MOTION": 14.15818863, "ECCENTRICITY": 0.00397989, "INCLINATION": 98.7105, "RA_OF_ASC_NODE": 35.0416, "ARG_OF_PERICENTER": 58.5659, "MEAN_ANOMALY": 64.2427, "EPHEMERIS_TYPE": 0, "CLASSIFICATION_TYPE": "U", "NORAD_CAT_ID": 30670, "ELEMENT_SET_NO": 999, "REV_AT_EPOCH": 97208, "BSTAR": 9.4880634e-05, "MEAN_MOTION_DOT": 1.45e-06, "MEAN_MOTION_DDOT": 0}, "tle": {"line1": "1 30670U 99025AQC 25350.70143050  .00000145  00000+0  94881-4 0  9999", "line2": "2 30670  98.7105  35.0416 0039798  58.5659  64.2427 14.15818863972087"}}, "geometry": {"type": "Point", "coordinates": [36.85278231095854, -6.984644060628646]}}, {"type": "Feature", "properties": {"norad_id": 30671, "name": "FENGYUN 1C DEB", "group": "fengyun-1c-debris", "lat": -28.464532743397164, "lon": 61.250792741502316, "alt_km": 854.6162394825114, "timestamp": "2025-12-17T10:52:54.631377+00:00", "meta": {"OBJECT_NAME": "FENGYUN 1C DEB", "OBJECT_ID": "1999-025AQD", "EPOCH": "2025-12-16T04:19:53.555808", "MEAN_MOTION": 13.95471633, "ECCENTRICITY": 0.01258606, "INCLINATION": 99.2522, "RA_OF_ASC_NODE": 54.9034, "ARG_OF_PERICENTER": 23.8645, "MEAN_ANOMALY": 37.0961, "EPHEMERIS_TYPE": 0, "CLASSIFICATION_TYPE": "U", "NORAD_CAT_ID": 30671, "ELEMENT_SET_NO": 999, "REV_AT_EPOCH": 95243, "BSTAR": 0.0009811726, "MEAN_MOTION_DOT": 1.378e-05, "MEAN_MOTION_DDOT": 0}, "tle": {"line1": "1 30671U 99025AQD 25350.18048097  .00001378  00000+0  98117-3 0  9991", "line2": "2 30671  99.2522  54.9034 0125860  23.8645  37.0961 13.95471633952434"}}, "geometry": {"type": "Point", "coordinates": [61.250792741502316, -28.464532743397164]}}, {"type": "Feature", "properties": {"norad_id": 30673, "name": "FENGYUN 1C DEB", "group": "fengyun-1c-debris", "lat": -71.36964735439574, "lon": 68.28699918354549, "alt_km": 924.2908728719221, "timestamp": "2025-12-17T10:52:54.631389+00:00", "meta": {"OBJECT_NAME": "FENGYUN 1C DEB", "OBJECT_ID": "1999-025AQF", "EPOCH": "2025-12-16T09:40:11.118144", "MEAN_MOTION": 14.03457369, "ECCENTRICITY": 0.00527351, "INCLINATION": 98.9196, "RA_OF_ASC_NODE": 39.4929, "ARG_OF_PERICENTER": 132.5046, "MEAN_ANOMALY": 249.0263, "EPHEMERIS_TYPE": 0, "CLASSIFICATION_TYPE": "U", "NORAD_CAT_ID": 30673, "ELEMENT_SET_NO": 999, "REV_AT_EPOCH": 96583, "BSTAR": 7.129129e-06, "MEAN_MOTION_DOT": -3.2e-07, "MEAN_MOTION_DDOT": 0}, "tle": {"line1": "1 30673U 99025AQF 25350.40290646 -.00000032  00000+0  71291-5 0  9990", "line2": "2 30673  98.9196  39.4929 0052735 132.5046 249.0263 14.03457369965831"}}, "geometry": {"type": "Point", "coordinates": [68.28699918354549, -71.36964735439574]}}, {"type": "Feature", "properties": {"norad_id": 30674, "name": "FENGYUN 1C DEB", "group": "fengyun-1c-debris", "lat": 22.126370239644217, "lon": 151.2578022086331, "alt_km": 579.1355700132517, "timestamp": "2025-12-17T10:52:54.631399+00:00", "meta": {"OBJECT_NAME": "FENGYUN 1C DEB", "OBJECT_ID": "1999-025AQG", "EPOCH": "2025-12-16T17:07:41.778336", "MEAN_MOTION": 14.9628008, "ECCENTRICITY": 0.00256362, "INCLINATION": 98.938, "RA_OF_ASC_NODE": 154.0829, "ARG_OF_PERICENTER": 290.6571, "MEAN_ANOMALY": 69.1898, "EPHEMERIS_TYPE": 0, "CLASSIFICATION_TYPE": "U", "NORAD_CAT_ID": 30674, "ELEMENT_SET_NO": 999, "REV_AT_EPOCH": 97411, "BSTAR": 0.0056145584, "MEAN_MOTION_DOT": 0.00064329, "MEAN_MOTION_DDOT": 0}, "tle": {"line1": "1 30674U 99025AQG 25350.71367799  .00064329  00000+0  56146-2 0  9996", "line2": "2 30674  98.9380 154.0829 0025636 290.6571  69.1898 14.96280080974111"}}, "geometry": {"type": "Point", "coordinates": [151.2578022086331, 22.126370239644217]}}, {"type": "Feature", "properties": {"norad_id": 30675, "name": "FENGYUN 1C DEB", "group": "fengyun-1c-debris", "lat": 7.147351537831764, "lon": 69.4790799797117, "alt_km": 835.1872409661337, "timestamp": "2025-12-17T10:52:54.631409+00:00", "meta": {"OBJECT_NAME": "FENGYUN 1C DEB", "OBJECT_ID": "1999-025AQH", "EPOCH": "2025-12-16T18:36:23.880960", "MEAN_MOTION": 14.27436087, "ECCENTRICITY": 0.00540183, "INCLINATION": 98.7547, "RA_OF_ASC_NODE": 69.9073, "ARG_OF_PERICENTER": 157.6301, "MEAN_ANOMALY": 327.2404, "EPHEMERIS_TYPE": 0, "CLASSIFICATION_TYPE": "U", "NORAD_CAT_ID": 30675, "ELEMENT_SET_NO": 999, "REV_AT_EPOCH": 96949, "BSTAR": 0.0012185078, "MEAN_MOTION_DOT": 2.993e-05, "MEAN_MOTION_DDOT": 0}, "tle": {"line1": "1 30675U 99025AQH 25350.77527640  .00002993  00000+0  12185-2 0  9990", "line2": "2 30675  98.7547  69.9073 0054018 157.6301 327.2404 14.27436087969499"}}, "geometry": {"type": "Point", "coordinates": [69.4790799797117, 7.147351537831764]}}]}